[{"OBJECT_NAME":"STARLINK-32194","OBJECT_ID":"2024-133Q","EPOCH":"2025-11-22T08:02:29.495904","MEAN_MOTION":15.30183948,"ECCENTRICITY":9.53e-5,"INCLINATION":53.1605,"RA_OF_ASC_NODE":75.7312,"ARG_OF_PERICENTER":85.4369,"MEAN_ANOMALY":274.6741,"EPHEMERIS_TYPE":0,"CLASSIFICATION_TYPE":"U","NORAD_CAT_ID":60315,"ELEMENT_SET_NO":999,"REV_AT_EPOCH":7520,"BSTAR":-2.8638e-5,"MEAN_MOTION_DOT":-1.207e-5,"MEAN_MOTION_DDOT":0},{"OBJECT_NAME":"STARLINK-32192","OBJECT_ID":"2024-133R","EPOCH":"2025-11-22T07:09:15.688800","MEAN_MOTION":15.30206022,"ECCENTRICITY":0.0001264,"INCLINATION":53.1607,"RA_OF_ASC_NODE":75.4987,"ARG_OF_PERICENTER":94.4559,"MEAN_ANOMALY":265.6586,"EPHEMERIS_TYPE":0,"CLASSIFICATION_TYPE":"U","NORAD_CAT_ID":60316,"ELEMENT_SET_NO":999,"REV_AT_EPOCH":7529,"BSTAR":7.0161e-5,"MEAN_MOTION_DOT":1.72e-5,"MEAN_MOTION_DDOT":0},{"OBJECT_NAME":"STARLINK-32189","OBJECT_ID":"2024-133S","EPOCH":"2025-11-22T07:59:27.015648","MEAN_MOTION":15.30187579,"ECCENTRICITY":0.0001135,"INCLINATION":53.1613,"RA_OF_ASC_NODE":75.7147,"ARG_OF_PERICENTER":86.5088,"MEAN_ANOMALY":273.6043,"EPHEMERIS_TYPE":0,"CLASSIFICATION_TYPE":"U","NORAD_CAT_ID":60317,"ELEMENT_SET_NO":999,"REV_AT_EPOCH":7529,"BSTAR":-3.0787e-5,"MEAN_MOTION_DOT":-1.27e-5,"MEAN_MOTION_DDOT":0},{"OBJECT_NAME":"STARLINK-32190","OBJECT_ID":"2024-133T","EPOCH":"2025-11-22T07:45:45.357696","MEAN_MOTION":15.30239183,"ECCENTRICITY":6.19e-5,"INCLINATION":53.1619,"RA_OF_ASC_NODE":75.6515,"ARG_OF_PERICENTER":13.0372,"MEAN_ANOMALY":347.0644,"EPHEMERIS_TYPE":0,"CLASSIFICATION_TYPE":"U","NORAD_CAT_ID":60318,"ELEMENT_SET_NO":999,"REV_AT_EPOCH":7520,"BSTAR":-0.0004121,"MEAN_MOTION_DOT":-0.00012558,"MEAN_MOTION_DDOT":0},{"OBJECT_NAME":"STARLINK-32182","OBJECT_ID":"2024-133U","EPOCH":"2025-11-22T08:00:58.254912","MEAN_MOTION":15.30183586,"ECCENTRICITY":0.0001118,"INCLINATION":53.1615,"RA_OF_ASC_NODE":75.7227,"ARG_OF_PERICENTER":90.1736,"MEAN_ANOMALY":269.9392,"EPHEMERIS_TYPE":0,"CLASSIFICATION_TYPE":"U","NORAD_CAT_ID":60319,"ELEMENT_SET_NO":999,"REV_AT_EPOCH":7520,"BSTAR":-2.8476e-5,"MEAN_MOTION_DOT":-1.202e-5,"MEAN_MOTION_DDOT":0},{"OBJECT_NAME":"STARLINK-32199","OBJECT_ID":"2024-133V","EPOCH":"2025-11-21T14:35:43.797120","MEAN_MOTION":15.3020076,"ECCENTRICITY":0.0001036,"INCLINATION":53.1606,"RA_OF_ASC_NODE":79.0093,"ARG_OF_PERICENTER":61.6109,"MEAN_ANOMALY":298.4996,"EPHEMERIS_TYPE":0,"CLASSIFICATION_TYPE":"U","NORAD_CAT_ID":60320,"ELEMENT_SET_NO":999,"REV_AT_EPOCH":7509,"BSTAR":-2.8989e-5,"MEAN_MOTION_DOT":-1.217e-5,"MEAN_MOTION_DDOT":0},{"OBJECT_NAME":"STARLINK-32198","OBJECT_ID":"2024-133W","EPOCH":"2025-11-22T08:04:00.499296","MEAN_MOTION":15.30184733,"ECCENTRICITY":0.0001165,"INCLINATION":53.1615,"RA_OF_ASC_NODE":75.7338,"ARG_OF_PERICENTER":87.761,"MEAN_ANOMALY":272.3524,"EPHEMERIS_TYPE":0,"CLASSIFICATION_TYPE":"U","NORAD_CAT_ID":60321,"ELEMENT_SET_NO":999,"REV_AT_EPOCH":7529,"BSTAR":-3.354e-5,"MEAN_MOTION_DOT":-1.352e-5,"MEAN_MOTION_DDOT":0},{"OBJECT_NAME":"STARLINK-31745","OBJECT_ID":"2024-136A","EPOCH":"2025-11-22T00:12:44.321184","MEAN_MOTION":15.30174541,"ECCENTRICITY":0.0001321,"INCLINATION":53.1609,"RA_OF_ASC_NODE":216.1556,"ARG_OF_PERICENTER":81.7298,"MEAN_ANOMALY":278.3853,"EPHEMERIS_TYPE":0,"CLASSIFICATION_TYPE":"U","NORAD_CAT_ID":60329,"ELEMENT_SET_NO":999,"REV_AT_EPOCH":7438,"BSTAR":-6.7155e-5,"MEAN_MOTION_DOT":-2.346e-5,"MEAN_MOTION_DDOT":0},{"OBJECT_NAME":"STARLINK-32153","OBJECT_ID":"2024-136B","EPOCH":"2025-11-22T00:11:13.238304","MEAN_MOTION":15.30172019,"ECCENTRICITY":0.0001352,"INCLINATION":53.1608,"RA_OF_ASC_NODE":216.149,"ARG_OF_PERICENTER":74.3695,"MEAN_ANOMALY":285.7455,"EPHEMERIS_TYPE":0,"CLASSIFICATION_TYPE":"U","NORAD_CAT_ID":60330,"ELEMENT_SET_NO":999,"REV_AT_EPOCH":7317,"BSTAR":-7.1446e-5,"MEAN_MOTION_DOT":-2.473e-5,"MEAN_MOTION_DDOT":0},{"OBJECT_NAME":"STARLINK-32203","OBJECT_ID":"2024-136C","EPOCH":"2025-11-21T21:45:34.831296","MEAN_MOTION":15.30208352,"ECCENTRICITY":0.0001086,"INCLINATION":53.1602,"RA_OF_ASC_NODE":206.2855,"ARG_OF_PERICENTER":81.5533,"MEAN_ANOMALY":278.5591,"EPHEMERIS_TYPE":0,"CLASSIFICATION_TYPE":"U","NORAD_CAT_ID":60331,"ELEMENT_SET_NO":999,"REV_AT_EPOCH":7330,"BSTAR":4.4178e-5,"MEAN_MOTION_DOT":9.5e-6,"MEAN_MOTION_DDOT":0},{"OBJECT_NAME":"STARLINK-32171","OBJECT_ID":"2024-136D","EPOCH":"2025-11-22T00:33:50.840640","MEAN_MOTION":15.30174791,"ECCENTRICITY":0.0001212,"INCLINATION":53.1607,"RA_OF_ASC_NODE":215.5453,"ARG_OF_PERICENTER":98.4424,"MEAN_ANOMALY":261.6714,"EPHEMERIS_TYPE":0,"CLASSIFICATION_TYPE":"U","NORAD_CAT_ID":60332,"ELEMENT_SET_NO":999,"REV_AT_EPOCH":7318,"BSTAR":-4.4346e-5,"MEAN_MOTION_DOT":-1.671e-5,"MEAN_MOTION_DDOT":0},{"OBJECT_NAME":"STARLINK-32133","OBJECT_ID":"2024-136E","EPOCH":"2025-11-22T03:10:12.548352","MEAN_MOTION":15.30171047,"ECCENTRICITY":0.0001292,"INCLINATION":53.1597,"RA_OF_ASC_NODE":215.5022,"ARG_OF_PERICENTER":78.6804,"MEAN_ANOMALY":281.4342,"EPHEMERIS_TYPE":0,"CLASSIFICATION_TYPE":"U","NORAD_CAT_ID":60333,"ELEMENT_SET_NO":999,"REV_AT_EPOCH":7319,"BSTAR":2.5533e-5,"MEAN_MOTION_DOT":3.97e-6,"MEAN_MOTION_DDOT":0},{"OBJECT_NAME":"STARLINK-32132","OBJECT_ID":"2024-136F","EPOCH":"2025-11-21T23:52:58.450080","MEAN_MOTION":15.30182731,"ECCENTRICITY":0.0001116,"INCLINATION":53.159,"RA_OF_ASC_NODE":216.069,"ARG_OF_PERICENTER":64.7418,"MEAN_ANOMALY":295.3698,"EPHEMERIS_TYPE":0,"CLASSIFICATION_TYPE":"U","NORAD_CAT_ID":60334,"ELEMENT_SET_NO":999,"REV_AT_EPOCH":7317,"BSTAR":-3.5793e-5,"MEAN_MOTION_DOT":-1.418e-5,"MEAN_MOTION_DDOT":0},{"OBJECT_NAME":"STARLINK-32168","OBJECT_ID":"2024-136G","EPOCH":"2025-11-22T02:56:30.683040","MEAN_MOTION":15.30166756,"ECCENTRICITY":0.0001217,"INCLINATION":53.1569,"RA_OF_ASC_NODE":215.4424,"ARG_OF_PERICENTER":79.1713,"MEAN_ANOMALY":280.9425,"EPHEMERIS_TYPE":0,"CLASSIFICATION_TYPE":"U","NORAD_CAT_ID":60335,"ELEMENT_SET_NO":999,"REV_AT_EPOCH":7319,"BSTAR":0.00057273,"MEAN_MOTION_DOT":0.00016624,"MEAN_MOTION_DDOT":0},{"OBJECT_NAME":"STARLINK-32079","OBJECT_ID":"2024-136H","EPOCH":"2025-11-22T02:51:58.506624","MEAN_MOTION":15.30174719,"ECCENTRICITY":0.0001091,"INCLINATION":53.1599,"RA_OF_ASC_NODE":215.4193,"ARG_OF_PERICENTER":88.8217,"MEAN_ANOMALY":271.2909,"EPHEMERIS_TYPE":0,"CLASSIFICATION_TYPE":"U","NORAD_CAT_ID":60336,"ELEMENT_SET_NO":999,"REV_AT_EPOCH":7319,"BSTAR":-2.0043e-5,"MEAN_MOTION_DOT":-9.52e-6,"MEAN_MOTION_DDOT":0},{"OBJECT_NAME":"STARLINK-32078","OBJECT_ID":"2024-136K","EPOCH":"2025-11-21T23:37:46.778016","MEAN_MOTION":15.30181025,"ECCENTRICITY":0.000121,"INCLINATION":53.1605,"RA_OF_ASC_NODE":216.0017,"ARG_OF_PERICENTER":90.5956,"MEAN_ANOMALY":269.5183,"EPHEMERIS_TYPE":0,"CLASSIFICATION_TYPE":"U","NORAD_CAT_ID":60338,"ELEMENT_SET_NO":999,"REV_AT_EPOCH":7317,"BSTAR":-2.5613e-5,"MEAN_MOTION_DOT":-1.117e-5,"MEAN_MOTION_DDOT":0},{"OBJECT_NAME":"STARLINK-32175","OBJECT_ID":"2024-136L","EPOCH":"2025-11-22T02:42:51.312096","MEAN_MOTION":15.30175588,"ECCENTRICITY":0.000125,"INCLINATION":53.1606,"RA_OF_ASC_NODE":215.3802,"ARG_OF_PERICENTER":88.4994,"MEAN_ANOMALY":271.615,"EPHEMERIS_TYPE":0,"CLASSIFICATION_TYPE":"U","NORAD_CAT_ID":60339,"ELEMENT_SET_NO":999,"REV_AT_EPOCH":7319,"BSTAR":-7.0105e-5,"MEAN_MOTION_DOT":-2.433e-5,"MEAN_MOTION_DDOT":0}]
