STARLINK-32194          
1 60315U 24133Q   25326.33506361 -.00001207  00000+0 -28638-4 0  9995
2 60315  53.1605  75.7312 0000953  85.4369 274.6741 15.30183948 75201
STARLINK-32192          
1 60316U 24133R   25326.29809825  .00001720  00000+0  70161-4 0  9998
2 60316  53.1607  75.4987 0001264  94.4559 265.6586 15.30206022 75291
STARLINK-32189          
1 60317U 24133S   25326.33295157 -.00001270  00000+0 -30787-4 0  9993
2 60317  53.1613  75.7147 0001135  86.5088 273.6043 15.30187579 75298
STARLINK-32190          
1 60318U 24133T   25326.32344164 -.00012558  00000+0 -41210-3 0  9999
2 60318  53.1619  75.6515 0000619  13.0372 347.0644 15.30239183 75203
STARLINK-32182          
1 60319U 24133U   25326.33400758 -.00001202  00000+0 -28476-4 0  9997
2 60319  53.1615  75.7227 0001118  90.1736 269.9392 15.30183586 75203
STARLINK-32199          
1 60320U 24133V   25325.60814580 -.00001217  00000+0 -28989-4 0  9995
2 60320  53.1606  79.0093 0001036  61.6109 298.4996 15.30200760 75097
STARLINK-32198          
1 60321U 24133W   25326.33611689 -.00001352  00000+0 -33540-4 0  9991
2 60321  53.1615  75.7338 0001165  87.7610 272.3524 15.30184733 75293
STARLINK-31745          
1 60329U 24136A   25326.00884631 -.00002346  00000+0 -67155-4 0  9998
2 60329  53.1609 216.1556 0001321  81.7298 278.3853 15.30174541 74383
STARLINK-32153          
1 60330U 24136B   25326.00779211 -.00002473  00000+0 -71446-4 0  9996
2 60330  53.1608 216.1490 0001352  74.3695 285.7455 15.30172019 73178
STARLINK-32203          
1 60331U 24136C   25325.90665314  .00000950  00000+0  44178-4 0  9991
2 60331  53.1602 206.2855 0001086  81.5533 278.5591 15.30208352 73309
STARLINK-32171          
1 60332U 24136D   25326.02350510 -.00001671  00000+0 -44346-4 0  9995
2 60332  53.1607 215.5453 0001212  98.4424 261.6714 15.30174791 73184
STARLINK-32133          
1 60333U 24136E   25326.13208968  .00000397  00000+0  25533-4 0  9996
2 60333  53.1597 215.5022 0001292  78.6804 281.4342 15.30171047 73194
STARLINK-32132          
1 60334U 24136F   25325.99512095 -.00001418  00000+0 -35793-4 0  9995
2 60334  53.1590 216.0690 0001116  64.7418 295.3698 15.30182731 73175
STARLINK-32168          
1 60335U 24136G   25326.12257735  .00016624  00000+0  57273-3 0  9998
2 60335  53.1569 215.4424 0001217  79.1713 280.9425 15.30166756 73199
STARLINK-32079          
1 60336U 24136H   25326.11942716 -.00000952  00000+0 -20043-4 0  9993
2 60336  53.1599 215.4193 0001091  88.8217 271.2909 15.30174719 73190
STARLINK-32078          
1 60338U 24136K   25325.98456919 -.00001117  00000+0 -25613-4 0  9996
2 60338  53.1605 216.0017 0001210  90.5956 269.5183 15.30181025 73175
STARLINK-32175          
1 60339U 24136L   25326.11309389 -.00002433  00000+0 -70105-4 0  9999
2 60339  53.1606 215.3802 0001250  88.4994 271.6150 15.30175588 73190
